ESTCUBE 1               
1 39161U 13021C   22260.39822019  .00001164  00000+0  18827-3 0  9993
2 39161  97.9054 335.2305 0010435 121.8446 238.3769 14.73097793503002
FENGYUN 3C              
1 39260U 13052A   22260.48766821  .00000077  00000+0  60001-4 0  9999
2 39260  98.4502 283.9239 0011446  15.2985 344.8535 14.15942716464941
CASSIOPE                
1 39265U 13055A   22260.20233785  .00019274  00000+0  50479-3 0  9991
2 39265  80.9661 169.9563 0616711  46.0219 319.0142 14.40347125465512
ZACUBE-1 (TSHEPISOSAT)  
1 39417U 13066B   22259.89244692  .00002161  00000+0  26678-3 0  9995
2 39417  97.6462 227.3186 0059126 104.3467 256.4321 14.82597172476676
CINEMA-3 (KHUSAT-2)     
1 39426U 13066L   22259.54843180  .00001447  00000+0  22936-3 0  9993
2 39426  97.8021 195.5416 0101769 304.6112  54.5529 14.70313646472654
TRITON-1                
1 39427U 13066M   22260.49016644  .00002120  00000+0  33600-3 0  9996
2 39427  97.8144 192.2991 0110809 331.2768  28.2364 14.69191472472486
DELFI-N3XT              
1 39428U 13066N   22259.77991744  .00004412  00000+0  67781-3 0  9992
2 39428  97.8146 190.2317 0116528 346.6792  13.1345 14.69535673471947
GOMX-1                  
1 39430U 13066Q   22260.34176962  .00001194  00000+0  21918-3 0  9993
2 39430  97.8007 162.2670 0150133 114.8392 246.8498 14.60354846469705
BRITE-PL1 (LEM)         
1 39431U 13066R   22260.17790456  .00000316  00000+0  77583-4 0  9990
2 39431  97.6922 105.7037 0200266 304.7201  53.5273 14.47411424465836
ICUBE-1                 
1 39432U 13066S   22259.98149951  .00002808  00000+0  27760-3 0  9995
2 39432  97.4721 259.0384 0029665 321.0004  38.9076 14.92356022479560
HUMSAT-D                
1 39433U 13066T   22260.00279765  .00003551  00000+0  32833-3 0  9991
2 39433  97.4516 266.7554 0027500 292.9044  66.9275 14.94884936480075
VELOX-PII               
1 39438U 13066Y   22260.44245506  .00001239  00000+0  16751-3 0  9992
2 39438  97.7018 219.1866 0069692 155.8162 204.6348 14.79102127475731
FIRST-MOVE              
1 39439U 13066Z   22259.87677236  .00004805  00000+0  55288-3 0  9997
2 39439  97.6466 229.9342 0064017  98.9517 261.8951 14.84711048476700
CUBEBUG-2 (LO-74)       
1 39440U 13066AA  22260.44649400  .00001298  00000+0  18124-3 0  9997
2 39440  97.7344 214.1872 0077911 191.9489 167.9876 14.77252144475060
NEE-02 KRYSAOR          
1 39441U 13066AB  22260.39406092  .00000939  00000+0  13717-3 0  9994
2 39441  97.7453 211.2670 0079522 206.4687 153.2452 14.75920585474750
FUNCUBE-1 (AO-73)       
1 39444U 13066AE  22260.17820957  .00002364  00000+0  28370-3 0  9998
2 39444  97.6342 230.0114 0058030  91.3940 269.3923 14.83731850475718
HINCUBE                 
1 39445U 13066AF  22260.17447738  .00002287  00000+0  27589-3 0  9996
2 39445  97.6356 229.8187 0058099  93.6392 267.1469 14.83533331475244
UWE-3                   
1 39446U 13066AG  22259.83609349  .00001714  00000+0  22529-3 0  9999
2 39446  97.6948 220.0060 0069045 150.1431 210.3749 14.79809262473974
AIST-1 (RS-41)          
1 39492U 13078C   22260.54919983  .00001070  00000+0  11196-3 0  9994
2 39492  82.4200 148.5060 0019891 156.8320 203.3801 14.88582867473482
SPROUT                  
1 39770U 14029E   22260.30181445  .00008490  00000+0  84506-3 0  9996
2 39770  97.9519  17.9070 0009350 138.1846 222.0091 14.91853618451350
UNISAT-6                
1 40012U 14033C   22260.10104564  .00001691  00000+0  25175-3 0  9990
2 40012  97.6639  83.1892 0056271 221.2393 138.4560 14.75093622443493
BUGSAT-1 (TITA)         
1 40014U 14033E   22259.98389824  .00002229  00000+0  19727-3 0  9994
2 40014  98.1461 262.1569 0032228  93.7419 266.7488 14.97009868449832
DUCHIFAT-1              
1 40021U 14033M   22259.81660629  .00004949  00000+0  47659-3 0  9995
2 40021  98.0195 211.7373 0014171  97.9461 262.3367 14.93357402448334
NANOSATC-BR1            
1 40024U 14033Q   22259.82739313  .00003019  00000+0  30217-3 0  9995
2 40024  97.9908 204.6259 0013328 103.6533 256.6171 14.92126602448120
QB50P1                  
1 40025U 14033R   22259.81642389  .00002549  00000+0  26439-3 0  9999
2 40025  97.9632 197.9614 0013536 113.0729 247.1917 14.90832103447374
DTUSAT-2                
1 40030U 14033W   22259.76957358  .00003196  00000+0  33463-3 0  9998
2 40030  97.9385 192.9282 0013117 110.1735 250.0895 14.90261401447242
QB50P2                  
1 40032U 14033Y   22259.81064397  .00002532  00000+0  26657-3 0  9998
2 40032  97.9389 192.9841 0013003 111.0302 249.2308 14.90233805447227
POLYITAN-1              
1 40042U 14033AJ  22259.55899780  .00003568  00000+0  36667-3 0  9994
2 40042  97.9739 199.0207 0015705 106.8831 253.4110 14.90919880447223
TIGRISAT                
1 40043U 14033AK  22260.07525267  .00001345  00000+0  20112-3 0  9999
2 40043  97.6577  84.4082 0058134 218.6218 141.0827 14.75159450443431
AISAT                   
1 40054U 14034B   22260.46226166  .00002564  00000+0  34567-3 0  9994
2 40054  98.3663  75.6176 0012739  25.2932 334.8900 14.80052468443081
CANX-4                  
1 40055U 14034C   22260.49898134  .00000812  00000+0  12706-3 0  9993
2 40055  98.3678  60.5177 0015199  67.2826 292.9987 14.75550929442327
CANX-5                  
1 40056U 14034D   22260.16671540  .00000818  00000+0  12795-3 0  9992
2 40056  98.3677  60.1536 0015210  68.3900 291.8927 14.75546136442272
VELOX-I                 
1 40057U 14034E   22260.50527850  .00002349  00000+0  32204-3 0  9993
2 40057  98.3719  76.7740 0011223  41.0725 319.1338 14.79433097443088
METEOR-M 2              
1 40069U 14037A   22260.51240276  .00000012  00000+0  24705-4 0  9997
2 40069  98.4311 274.1137 0006752  59.7052 300.4799 14.20718341424935
DX1                     
1 40071U 14037C   22260.56967771  .00000877  00000+0  11790-3 0  9999
2 40071  98.3946 133.8297 0009041  28.5685 331.6024 14.81983262442984
UKUBE-1                 
1 40074U 14037F   22260.56267468  .00002294  00000+0  27141-3 0  9990
2 40074  98.3681 146.0036 0004707   7.6697 352.4557 14.85677423443745
FIREBIRD 3              
1 40377U 15003B   22260.13239967  .00017327  00000+0  48307-3 0  9996
2 40377  99.0846 145.6115 0096455  74.2869 286.8982 15.32233016422453
FIREBIRD 4              
1 40378U 15003C   22259.62951991  .00022857  00000+0  63387-3 0  9996
2 40378  99.0850 145.2270 0096436  75.5207 285.6706 15.32322537422375
GRIFEX                  
1 40379U 15003D   22260.37650542  .00010148  00000+0  34503-3 0  9997
2 40379  99.0983 131.0061 0113082 118.2744 242.9956 15.24721650421633
CP10 (EXOCUBE)          
1 40380U 15003E   22259.57488397  .00009340  00000+0  34923-3 0  9994
2 40380  99.1094 122.3905 0121447 146.4942 214.4047 15.20914478421000
DEORBITSAIL             
1 40719U 15032E   22260.14405388  .00002190  00000+0  30443-3 0  9995
2 40719  97.7685 135.3889 0017376  68.1779 292.1279 14.78723931387436
NUDT-PHONESAT           
1 40900U 15049B   22260.58822972  .00036951  00000+0  91696-3 0  9994
2 40900  97.3975 279.3064 0006459 327.6085 151.2315 15.40245255388775
XW-2A                   
1 40903U 15049E   22260.54134943  .00030017  00000+0  41396-3 0  9996
2 40903  97.1689 319.3811 0010084 133.1461 334.6051 15.57103187393573
XW-2C                   
1 40906U 15049H   22260.60276660  .00007036  00000+0  33007-3 0  9994
2 40906  97.4966 263.3410 0014935  43.2779  82.9232 15.19875057386916
XW-2D                   
1 40907U 15049J   22260.58146597  .00008033  00000+0  36818-3 0  9998
2 40907  97.4953 263.3860 0014116  39.3236  77.5409 15.20645057386965
LILACSAT-2              
1 40908U 15049K   22260.57201620  .00003673  00000+0  19281-3 0  9997
2 40908  97.5211 260.2872 0016694  61.2113  56.2972 15.16239481386441
XW-2E                   
1 40909U 15049L   22260.58087825  .00012412  00000+0  49936-3 0  9999
2 40909  97.4663 268.1351 0012204  20.5327  97.4465 15.24970891387440
XW-2F                   
1 40910U 15049M   22260.54125853  .00012446  00000+0  50861-3 0  9997
2 40910  97.4741 267.2521 0013288  21.6080  98.5523 15.24432004387209
XW-2B                   
1 40911U 15049N   22260.54451829  .00007887  00000+0  36284-3 0  9999
2 40911  97.4942 263.9185 0014059  41.4938  57.2180 15.20521061386849
KAITUO 1B               
1 40912U 15049P   22260.54985728  .00014101  00000+0  52134-3 0  9999
2 40912  97.4368 271.6095 0011489 346.8916 138.9595 15.27760332387807
TIANWANG 1A (TW-1A)     
1 40928U 15051D   22260.34623153  .00071938  00000+0  65664-3 0  9991
2 40928  97.0323 282.6301 0007665  59.1107  69.3029 15.67610014392596
LAPAN-A2                
1 40931U 15052B   22260.44527374  .00001243  00000+0  83545-4 0  9996
2 40931   6.0000 232.8371 0012810  27.1421  52.8419 14.76860361376962
LQSAT                   
1 40958U 15057A   22260.35603868  .00000430  00000+0  73541-4 0  9995
2 40958  97.7420 302.4190 0018817  28.4363 331.7869 14.73428843373517
ATHENOXAT 1             
1 41168U 15077C   22259.98505441  .00020058  00000+0  79215-3 0  9997
2 41168  14.9834 130.9814 0008908  83.3046  48.5846 15.22992527374278
GALASSIA                
1 41170U 15077E   22259.86995391  .00013879  00000+0  55715-3 0  9996
2 41170  14.9873 123.5319 0009908 113.7652 246.3710 15.21890041374167
VELOX-II                
1 41171U 15077F   22260.15061134  .00008802  00000+0  39785-3 0  9999
2 41171  14.9901 199.6811 0007697 306.5510  53.4103 15.16889476373615
CHUBUSAT-2              
1 41338U 16012B   22260.40425602  .00002189  00000+0  15792-3 0  9990
2 41338  31.0022 158.3011 0013327 344.2314  15.7905 15.01650507361316
CHUBUSAT-3              
1 41339U 16012C   22260.12707279  .00002499  00000+0  18096-3 0  9997
2 41339  31.0110 156.9759 0013501 350.0668   9.9702 15.01707594361273
HORYU-4                 
1 41340U 16012D   22259.98702587  .00004302  00000+0  29908-3 0  9997
2 41340  31.0038 134.3560 0013016  30.2844 329.8542 15.03781740361518
